{"fetched_at": "2026-03-13T06:14:47.108744+00:00", "count": 376, "satellites": [ {"name": "SHENZHOU-22", "tle1": "1 66645U 25272A   26071.65904515  .00026654  00000+0  31305-3 0  9993", "tle2": "2 66645  41.4661 190.0926 0006712 290.2953  69.7164 15.60827652267521", "norad_id": 66645, "group": "stations", "highlight": false}, {"name": "SOYUZ-MS 28", "tle1": "1 66664U 25275A   26071.86901803  .00011348  00000+0  21655-3 0  9998", "tle2": "2 66664  51.6324  56.6367 0007923 186.1410 173.9482 15.48614629554527", "norad_id": 66664, "group": "stations", "highlight": false}, {"name": "DUPLEX", "tle1": "1 66906U 98067XS  26071.21883992  .00037736  00000+0  52838-3 0  9999", "tle2": "2 66906  51.6293  56.7987 0002554 123.1889 236.9348 15.56413150 15524", "norad_id": 66906, "group": "stations", "highlight": false}, {"name": "ISS OBJECT XT", "tle1": "1 66907U 98067XT  26071.32038583  .00181210  00000+0  14377-2 0  9992", "tle2": "2 66907  51.6249  52.2093 0004715  95.5605 264.5930 15.70168045 15591", "norad_id": 66907, "group": "stations", "highlight": true}, {"name": "ISS OBJECT XU", "tle1": "1 66908U 98067XU  26071.19109037  .00173902  00000+0  13761-2 0  9996", "tle2": "2 66908  51.6251  52.8423 0004849  95.5022 264.6529 15.70253790 15574", "norad_id": 66908, "group": "stations", "highlight": true}, {"name": "SILVERSAT", "tle1": "1 66909U 98067XV  26071.18756588  .00230471  00000+0  15879-2 0  9992", "tle2": "2 66909  51.6249  52.0679 0005428  93.6368 266.5252 15.73352402 15581", "norad_id": 66909, "group": "stations", "highlight": false}, {"name": "ISS OBJECT XW", "tle1": "1 66910U 98067XW  26071.95313837  .00158268  00000+0  12885-2 0  9992", "tle2": "2 66910  51.6244  48.9273 0005325 105.6610 254.4975 15.69619162 15696", "norad_id": 66910, "group": "stations", "highlight": true}, {"name": "ISS OBJECT XX", "tle1": "1 66911U 98067XX  26071.49624840  .00293883  00000+0  17140-2 0  9993", "tle2": "2 66911  51.6223  49.6058 0006975 102.6102 257.5678 15.76985712 15631", "norad_id": 66911, "group": "stations", "highlight": true}, {"name": "ISS OBJECT XY", "tle1": "1 66912U 98067XY  26071.96806898  .00101500  00000+0  10318-2 0  9995", "tle2": "2 66912  51.6271  50.5463 0003327 107.6228 252.5131 15.64357529 15666", "norad_id": 66912, "group": "stations", "highlight": true}, {"name": "KNACKSAT-2", "tle1": "1 67683U 98067XZ  26071.56087589  .00042260  00000+0  69040-3 0  9999", "tle2": "2 67683  51.6314  57.5801 0009510 196.2104 163.8583 15.52078501  5234", "norad_id": 67683, "group": "stations", "highlight": false}, {"name": "GXIBA-1", "tle1": "1 67684U 98067YA  26071.33596012  .00086646  00000+0  12676-2 0  9999", "tle2": "2 67684  51.6305  58.3289 0011320 184.6561 175.4326 15.54791235  5203", "norad_id": 67684, "group": "stations", "highlight": false}, {"name": "CORAL", "tle1": "1 67685U 98067YB  26071.36262994  .00049518  00000+0  79543-3 0  9996", "tle2": "2 67685  51.6310  58.5071 0011413 191.9545 168.1176 15.52456287  5202", "norad_id": 67685, "group": "stations", "highlight": false}, {"name": "ISS OBJECT YC", "tle1": "1 67686U 98067YC  26071.22744255  .00056872  00000+0  89399-3 0  9998", "tle2": "2 67686  51.6318  59.1061 0008120 159.6101 200.5215 15.53033071  5182", "norad_id": 67686, "group": "stations", "highlight": true}, {"name": "LEOPARD", "tle1": "1 67687U 98067YD  26071.36505937  .00045748  00000+0  74214-3 0  9996", "tle2": "2 67687  51.6322  58.5246 0008020 163.8999 196.2247 15.52253756  5120", "norad_id": 67687, "group": "stations", "highlight": false}, {"name": "ISS OBJECT YE", "tle1": "1 67688U 98067YE  26071.93829696  .00053041  00000+0  84072-3 0  9999", "tle2": "2 67688  51.6314  55.6037 0007968 162.5532 197.5733 15.52834307  5218", "norad_id": 67688, "group": "stations", "highlight": true}, {"name": "CREW DRAGON 12", "tle1": "1 67796U 26031A   26071.86901803  .00011348  00000+0  21655-3 0  9996", "tle2": "2 67796  51.6324  56.6367 0007923 186.1410 173.9482 15.48614629556728", "norad_id": 67796, "group": "stations", "highlight": false}]}